{"type": "FeatureCollection", "features": [ {"type": "Feature", "properties": {"norad_id": 32384, "name": "GPS BIIRM-5 (PRN 29)", "group": "gps-ops", "lat": 30.646115770523146, "lon": 76.770165706547, "alt_km": 20101.582896057094, "timestamp": "2025-12-26T05:31:12.766510+00:00", "meta": {"OBJECT_NAME": "GPS BIIRM-5 (PRN 29)", "OBJECT_ID": "2007-062A", "EPOCH": "2025-12-25T18:38:05.063136", "MEAN_MOTION": 2.0054934, "ECCENTRICITY": 0.00314029, "INCLINATION": 55.1709, "RA_OF_ASC_NODE": 281.123, "ARG_OF_PERICENTER": 162.2821, "MEAN_ANOMALY": 11.9892, "EPHEMERIS_TYPE": 0, "CLASSIFICATION_TYPE": "U", "NORAD_CAT_ID": 32384, "ELEMENT_SET_NO": 999, "REV_AT_EPOCH": 13203, "BSTAR": 0, "MEAN_MOTION_DOT": -2.7e-07, "MEAN_MOTION_DDOT": 0}, "tle": {"line1": "1 32384U 07062A   25359.77644749 -.00000027  00000+0  00000+0 0  9995", "line2": "2 32384  55.1709 281.1230 0031402 162.2821  11.9892  2.00549340132034"}}, "geometry": {"type": "Point", "coordinates": [76.770165706547, 30.646115770523146]}}, {"type": "Feature", "properties": {"norad_id": 32711, "name": "GPS BIIRM-6 (PRN 07)", "group": "gps-ops", "lat": 48.16953870408009, "lon": -150.23123733080106, "alt_km": 20714.996375177372, "timestamp": "2025-12-26T05:31:12.766521+00:00", "meta": {"OBJECT_NAME": "GPS BIIRM-6 (PRN 07)", "OBJECT_ID": "2008-012A", "EPOCH": "2025-12-25T15:16:44.562432", "MEAN_MOTION": 2.00566129, "ECCENTRICITY": 0.0203018, "INCLINATION": 54.4785, "RA_OF_ASC_NODE": 156.8581, "ARG_OF_PERICENTER": 245.1029, "MEAN_ANOMALY": 112.7632, "EPHEMERIS_TYPE": 0, "CLASSIFICATION_TYPE": "U", "NORAD_CAT_ID": 32711, "ELEMENT_SET_NO": 999, "REV_AT_EPOCH": 13027, "BSTAR": 0, "MEAN_MOTION_DOT": 1.01e-06, "MEAN_MOTION_DDOT": 0}, "tle": {"line1": "1 32711U 08012A   25359.63662688  .00000101  00000+0  00000+0 0  9994", "line2": "2 32711  54.4785 156.8581 0203018 245.1029 112.7632  2.00566129130276"}}, "geometry": {"type": "Point", "coordinates": [-150.23123733080106, 48.16953870408009]}}, {"type": "Feature", "properties": {"norad_id": 35752, "name": "GPS BIIRM-8 (PRN 05)", "group": "gps-ops", "lat": 55.90583146385054, "lon": 117.4597369721012, "alt_km": 20038.91228000911, "timestamp": "2025-12-26T05:31:12.766532+00:00", "meta": {"OBJECT_NAME": "GPS BIIRM-8 (PRN 05)", "OBJECT_ID": "2009-043A", "EPOCH": "2025-12-25T15:05:55.166208", "MEAN_MOTION": 2.00564825, "ECCENTRICITY": 0.0051563, "INCLINATION": 56.0999, "RA_OF_ASC_NODE": 34.2749, "ARG_OF_PERICENTER": 81.7012, "MEAN_ANOMALY": 290.5995, "EPHEMERIS_TYPE": 0, "CLASSIFICATION_TYPE": "U", "NORAD_CAT_ID": 35752, "ELEMENT_SET_NO": 999, "REV_AT_EPOCH": 11988, "BSTAR": 0, "MEAN_MOTION_DOT": -5.1e-07, "MEAN_MOTION_DDOT": 0}, "tle": {"line1": "1 35752U 09043A   25359.62911072 -.00000051  00000+0  00000+0 0  9995", "line2": "2 35752  56.0999  34.2749 0051563  81.7012 290.5995  2.00564825119888"}}, "geometry": {"type": "Point", "coordinates": [117.4597369721012, 55.90583146385054]}}, {"type": "Feature", "properties": {"norad_id": 36585, "name": "GPS BIIF-1  (PRN 25)", "group": "gps-ops", "lat": -20.092894395024103, "lon": 50.79094026924653, "alt_km": 20440.923424007386, "timestamp": "2025-12-26T05:31:12.766544+00:00", "meta": {"OBJECT_NAME": "GPS BIIF-1  (PRN 25)", "OBJECT_ID": "2010-022A", "EPOCH": "2025-12-25T02:37:13.768896", "MEAN_MOTION": 2.005538, "ECCENTRICITY": 0.01265811, "INCLINATION": 54.2983, "RA_OF_ASC_NODE": 215.575, "ARG_OF_PERICENTER": 65.232, "MEAN_ANOMALY": 49.6235, "EPHEMERIS_TYPE": 0, "CLASSIFICATION_TYPE": "U", "NORAD_CAT_ID": 36585, "ELEMENT_SET_NO": 999, "REV_AT_EPOCH": 11410, "BSTAR": 0, "MEAN_MOTION_DOT": 7.6e-07, "MEAN_MOTION_DDOT": 0}, "tle": {"line1": "1 36585U 10022A   25359.10918714  .00000076  00000+0  00000+0 0  9998", "line2": "2 36585  54.2983 215.5750 0126581  65.2320  49.6235  2.00553800114105"}}, "geometry": {"type": "Point", "coordinates": [50.79094026924653, -20.092894395024103]}}, {"type": "Feature", "properties": {"norad_id": 38833, "name": "GPS BIIF-3  (PRN 24)", "group": "gps-ops", "lat": -43.875941644963945, "lon": 105.42108330884398, "alt_km": 20440.777333824204, "timestamp": "2025-12-26T05:31:12.766555+00:00", "meta": {"OBJECT_NAME": "GPS BIIF-3  (PRN 24)", "OBJECT_ID": "2012-053A", "EPOCH": "2025-12-24T07:38:21.199488", "MEAN_MOTION": 2.00565058, "ECCENTRICITY": 0.01760755, "INCLINATION": 53.5598, "RA_OF_ASC_NODE": 150.7645, "ARG_OF_PERICENTER": 64.1634, "MEAN_ANOMALY": 297.6191, "EPHEMERIS_TYPE": 0, "CLASSIFICATION_TYPE": "U", "NORAD_CAT_ID": 38833, "ELEMENT_SET_NO": 999, "REV_AT_EPOCH": 9593, "BSTAR": 0, "MEAN_MOTION_DOT": 8.3e-07, "MEAN_MOTION_DDOT": 0}, "tle": {"line1": "1 38833U 12053A   25358.31830092  .00000083  00000+0  00000+0 0  9994", "line2": "2 38833  53.5598 150.7645 0176075  64.1634 297.6191  2.00565058 95932"}}, "geometry": {"type": "Point", "coordinates": [105.42108330884398, -43.875941644963945]}}, {"type": "Feature", "properties": {"norad_id": 39166, "name": "GPS BIIF-4  (PRN 27)", "group": "gps-ops", "lat": 31.163865097326326, "lon": -58.588571900204535, "alt_km": 19815.148243531752, "timestamp": "2025-12-26T05:31:12.766566+00:00", "meta": {"OBJECT_NAME": "GPS BIIF-4  (PRN 27)", "OBJECT_ID": "2013-023A", "EPOCH": "2025-12-24T04:22:45.402816", "MEAN_MOTION": 2.00564584, "ECCENTRICITY": 0.01386043, "INCLINATION": 54.6422, "RA_OF_ASC_NODE": 276.1031, "ARG_OF_PERICENTER": 48.7593, "MEAN_ANOMALY": 312.474, "EPHEMERIS_TYPE": 0, "CLASSIFICATION_TYPE": "U", "NORAD_CAT_ID": 39166, "ELEMENT_SET_NO": 999, "REV_AT_EPOCH": 9237, "BSTAR": 0, "MEAN_MOTION_DOT": -1.6e-07, "MEAN_MOTION_DDOT": 0}, "tle": {"line1": "1 39166U 13023A   25358.18246994 -.00000016  00000+0  00000+0 0  9996", "line2": "2 39166  54.6422 276.1031 0138604  48.7593 312.4740  2.00564584 92374"}}, "geometry": {"type": "Point", "coordinates": [-58.588571900204535, 31.163865097326326]}}, {"type": "Feature", "properties": {"norad_id": 39533, "name": "GPS BIIF-5  (PRN 30)", "group": "gps-ops", "lat": 32.522844370681355, "lon": -175.56616476063607, "alt_km": 20390.13908690416, "timestamp": "2025-12-26T05:31:12.766577+00:00", "meta": {"OBJECT_NAME": "GPS BIIF-5  (PRN 30)", "OBJECT_ID": "2014-008A", "EPOCH": "2025-12-23T16:16:25.020768", "MEAN_MOTION": 2.00548852, "ECCENTRICITY": 0.00795532, "INCLINATION": 53.5993, "RA_OF_ASC_NODE": 156.4877, "ARG_OF_PERICENTER": 225.9161, "MEAN_ANOMALY": 133.4108, "EPHEMERIS_TYPE": 0, "CLASSIFICATION_TYPE": "U", "NORAD_CAT_ID": 39533, "ELEMENT_SET_NO": 999, "REV_AT_EPOCH": 8616, "BSTAR": 0, "MEAN_MOTION_DOT": 8.2e-07, "MEAN_MOTION_DDOT": 0}, "tle": {"line1": "1 39533U 14008A   25357.67806737  .00000082  00000+0  00000+0 0  9990", "line2": "2 39533  53.5993 156.4877 0079553 225.9161 133.4108  2.00548852 86167"}}, "geometry": {"type": "Point", "coordinates": [-175.56616476063607, 32.522844370681355]}}, {"type": "Feature", "properties": {"norad_id": 39741, "name": "GPS BIIF-6  (PRN 06)", "group": "gps-ops", "lat": -14.415068729024147, "lon": 168.00870255752517, "alt_km": 20239.94312071155, "timestamp": "2025-12-26T05:31:12.766588+00:00", "meta": {"OBJECT_NAME": "GPS BIIF-6  (PRN 06)", "OBJECT_ID": "2014-026A", "EPOCH": "2025-12-24T23:00:25.010784", "MEAN_MOTION": 2.00560429, "ECCENTRICITY": 0.00394828, "INCLINATION": 56.5788, "RA_OF_ASC_NODE": 338.3014, "ARG_OF_PERICENTER": 319.3723, "MEAN_ANOMALY": 40.3399, "EPHEMERIS_TYPE": 0, "CLASSIFICATION_TYPE": "U", "NORAD_CAT_ID": 39741, "ELEMENT_SET_NO": 999, "REV_AT_EPOCH": 8504, "BSTAR": 0, "MEAN_MOTION_DOT": -5.8e-07, "MEAN_MOTION_DDOT": 0}, "tle": {"line1": "1 39741U 14026A   25358.95862281 -.00000058  00000+0  00000+0 0  9993", "line2": "2 39741  56.5788 338.3014 0039482 319.3723  40.3399  2.00560429 85044"}}, "geometry": {"type": "Point", "coordinates": [168.00870255752517, -14.415068729024147]}}, {"type": "Feature", "properties": {"norad_id": 40105, "name": "GPS BIIF-7  (PRN 09)", "group": "gps-ops", "lat": 34.884262754794605, "lon": -113.55298345527714, "alt_km": 20094.27009271945, "timestamp": "2025-12-26T05:31:12.766598+00:00", "meta": {"OBJECT_NAME": "GPS BIIF-7  (PRN 09)", "OBJECT_ID": "2014-045A", "EPOCH": "2025-12-23T13:11:32.096256", "MEAN_MOTION": 2.00573211, "ECCENTRICITY": 0.00324114, "INCLINATION": 55.2352, "RA_OF_ASC_NODE": 95.4677, "ARG_OF_PERICENTER": 120.1575, "MEAN_ANOMALY": 240.1743, "EPHEMERIS_TYPE": 0, "CLASSIFICATION_TYPE": "U", "NORAD_CAT_ID": 40105, "ELEMENT_SET_NO": 999, "REV_AT_EPOCH": 8255, "BSTAR": 0, "MEAN_MOTION_DOT": 8e-08, "MEAN_MOTION_DDOT": 0}, "tle": {"line1": "1 40105U 14045A   25357.54967704  .00000008  00000+0  00000+0 0  9994", "line2": "2 40105  55.2352  95.4677 0032411 120.1575 240.1743  2.00573211 82556"}}, "geometry": {"type": "Point", "coordinates": [-113.55298345527714, 34.884262754794605]}}, {"type": "Feature", "properties": {"norad_id": 40294, "name": "GPS BIIF-8  (PRN 03)", "group": "gps-ops", "lat": -35.68990018751034, "lon": -114.39644735014957, "alt_km": 20333.157336273198, "timestamp": "2025-12-26T05:31:12.766610+00:00", "meta": {"OBJECT_NAME": "GPS BIIF-8  (PRN 03)", "OBJECT_ID": "2014-068A", "EPOCH": "2025-12-23T10:16:22.808064", "MEAN_MOTION": 2.00565491, "ECCENTRICITY": 0.00608386, "INCLINATION": 56.8656, "RA_OF_ASC_NODE": 37.7327, "ARG_OF_PERICENTER": 68.9718, "MEAN_ANOMALY": 291.747, "EPHEMERIS_TYPE": 0, "CLASSIFICATION_TYPE": "U", "NORAD_CAT_ID": 40294, "ELEMENT_SET_NO": 999, "REV_AT_EPOCH": 8168, "BSTAR": 0, "MEAN_MOTION_DOT": -4.8e-07, "MEAN_MOTION_DDOT": 0}, "tle": {"line1": "1 40294U 14068A   25357.42804176 -.00000048  00000+0  00000+0 0  9993", "line2": "2 40294  56.8656  37.7327 0060838  68.9718 291.7470  2.00565491 81685"}}, "geometry": {"type": "Point", "coordinates": [-114.39644735014957, -35.68990018751034]}}]}